[Satellite]
VERSION=1.1
NAME=SL-8 R/B
NICKNAME=SL-8 R/B
TLE1=1 08459U 75112B   17186.20930631 -.00000001  00000-0  84713-5 0  9999
TLE2=2 08459  74.0622  78.8886 0017025 245.3667 114.5713 14.36755598176562
